GORIZONT 1 [-]          
1 11158U 78118A   22316.10788815 -.00000085  00000+0  00000+0 0  9995
2 11158  11.0764 199.5464 3443663 289.3116  37.2669  1.00307580109753
GORIZONT 2 [-]          
1 11440U 79062A   22317.46197451  .00000003  00000+0  00000+0 0  9997
2 11440   8.9420 300.1274 0003827 284.4875  58.8439  1.00297542124868
GORIZONT 3 [-]          
1 11648U 79105A   22317.46458946 -.00000132  00000+0  00000+0 0  9998
2 11648   9.1036 301.5805 0013676 218.4199 137.5151  1.00347979109328
GORIZONT 4 [-]          
1 11841U 80049A   22317.41924139 -.00000228  00000+0  00000+0 0  9995
2 11841  10.2598 307.4345 0001028 282.4284 140.0944  0.98632121220580
GORIZONT 5 [-]          
1 13092U 82020A   22317.16090889 -.00000122  00000+0  00000+0 0  9997
2 13092  11.2620 312.7522 0034244 215.3290 137.2981  0.98533259108666
GORIZONT 6 [-]          
1 13624U 82103A   22317.54130484  .00000115  00000+0  00000+0 0  9999
2 13624  10.1859 312.8016 0001905 230.8049 258.8176  1.00311117107790
GORIZONT 7 [-]          
1 14160U 83066A   22317.46833755 -.00000038  00000+0  00000+0 0  9991
2 14160  11.8633 322.2154 0009435 315.9504  39.7392  0.98346755141841
GORIZONT 8 [-]          
1 14532U 83118A   22317.36923102 -.00000164  00000+0  00000+0 0  9997
2 14532  12.0414 324.0801 0030131 152.6030  27.9206  0.98270780107614
GORIZONT 9 [-]          
1 14940U 84041A   22317.03303595 -.00000062  00000+0  00000+0 0  9995
2 14940  11.2322 322.1017 0004837 214.8530 319.4451  1.00222597108781
GORIZONT 10 [-]         
1 15144U 84078A   22317.30838240  .00000100  00000+0  00000+0 0  9994
2 15144  11.3294 323.1260 0000685 176.3743 217.3980  1.00242119141426
GORIZONT 11 [-]         
1 15484U 85007A   22317.47199847 -.00000365  00000+0  00000+0 0  9999
2 15484  11.5140 325.1117 0003542 162.5712 210.0163  1.00359558139488
GORIZONT 12 [-]         
1 16769U 86044A   22316.59825703  .00000104  00000+0  00000+0 0  9997
2 16769  12.1470 330.5083 0001933 228.8704 117.7927  1.00220741134093
GORIZONT 13 [-]         
1 17083U 86090A   22317.17688538 -.00000084  00000+0  00000+0 0  9994
2 17083  14.0372 337.7057 0013000 339.1499 199.0408  0.96725947105952
GORIZONT 14 [-]         
1 17969U 87040A   22316.75813399 -.00000092  00000+0  00000+0 0  9990
2 17969  12.9615 329.0818 0031717 177.0654 211.7987  0.97658801107049
GORIZONT 15 [-]         
1 19017U 88028A   22317.28989822 -.00000102  00000+0  00000+0 0  9999
2 19017  14.3341 340.5130 0036844 159.7745 225.0602  0.97829100106678
GORIZONT 16 [-]         
1 19397U 88071A   22317.28351701  .00000083  00000+0  00000+0 0  9994
2 19397  13.1841 339.1950 0013290  65.9454 306.3072  0.99981816125120
GORIZONT 17 [-]         
1 19765U 89004A   22317.36181274 -.00000221  00000+0  00000+0 0  9990
2 19765  13.7388 342.5509 0023250 136.2612 234.7609  0.99069410122588
GORIZONT 18 [-]         
1 20107U 89052A   22317.51195285 -.00000175  00000+0  00000+0 0  9997
2 20107  13.7858 343.8069 0033483 319.4416 222.3068  0.99399522121371
GORIZONT 19 [-]         
1 20263U 89081A   22316.59007660 -.00000112  00000+0  00000+0 0  9999
2 20263  13.5157 342.9929 0004266 208.2329 147.0729  1.00355832 34171
GORIZONT 20 [-]         
1 20659U 90054A   22316.58313318 -.00000259  00000+0  00000+0 0  9991
2 20659  13.9590 345.8119 0007079 169.5125 199.3250  1.00244079118527
GORIZONT 21 [-]         
1 20923U 90094A   22317.40691597 -.00000296  00000+0  00000+0 0  9990
2 20923  13.9741 346.5750 0005332 202.2617 308.8357  1.00360688117292
GORIZONT 22 [-]         
1 20953U 90102A   22317.40505580 -.00000301  00000+0  00000+0 0  9996
2 20953  13.9335 346.9439 0002256  30.3661 319.7794  1.00251256117211
GORIZONT 23 [-]         
1 21533U 91046A   22317.41542193 -.00000199  00000+0  00000+0 0  9996
2 21533  14.7065 351.1052 0003287 302.1615 216.5901  0.98909092 33718
GORIZONT 24 [-]         
1 21759U 91074A   22317.55011962 -.00000004  00000+0  00000+0 0  9992
2 21759  14.8667 353.0157 0018206 225.3896 288.4736  0.98441938112046
GORIZONT 25 [-]         
1 21922U 92017A   22317.55311598 -.00000052  00000+0  00000+0 0  9993
2 21922  14.4074 352.3341 0028673  85.2757  70.1950  0.99843402111845
GORIZONT 26 [-]         
1 22041U 92043A   22317.08788740 -.00000226  00000+0  00000+0 0  9993
2 22041  14.5844 354.3505 0031423 235.8129 158.2334  0.99243683110456
GORIZONT 27 [-]         
1 22245U 92082A   22317.24214456  .00000125  00000+0  00000+0 0  9995
2 22245  14.5002 353.9297 0011158  12.2535 175.3921  1.00158029113976
GORIZONT 28 [-]         
1 22880U 93069A   22317.21368884  .00000107  00000+0  00000+0 0  9998
2 22880  14.6524 357.7993 0034695 135.3552  46.1453  0.99648987106053
GORIZONT 29 [-]         
1 22907U 93072A   22308.10478825 -.00000241  00000+0  00000+0 0  9997
2 22907  14.5667 357.3236 0009007 345.7505  71.1985  1.00159244105941
GORIZONT 30 [-]         
1 23108U 94030A   22317.47766420 -.00000264  00000+0  00000+0 0  9992
2 23108  14.5779 358.1525 0002341 178.3753 192.0264  1.00260070104311
GORIZONT 31 [-]         
1 23775U 96005A   22317.47670538 -.00000336  00000+0  00000+0 0  9990
2 23775  14.5092   4.3829 0018969 201.7525 156.8411  0.99898588 97947
GORIZONT 32 [-]         
1 23880U 96034A   22317.38431427  .00000070  00000+0  00000+0 0  9995
2 23880  14.4601   4.8974 0007823 358.7064  16.2785  1.00197754 96899
GORIZONT 33 [-]         
1 26372U 00029A   22317.09268889 -.00000182  00000+0  00000+0 0  9996
2 26372  13.2075  16.1296 0003238 110.7255 295.9926  1.00300159 82272
